ONEWEB-0694             
1 56722U 23068N   23278.48891257  .00002936  00000+0  40045-3 0  9992
2 56722  86.7197  83.8943 0017003  99.8070 260.5071 14.78243492 20536
ONEWEB-0696             
1 56723U 23068P   23278.52817545  .00001159  00000+0  24929-2 0  9994
2 56723  88.0860  95.0554 0003314  79.6969 280.4542 13.28984867 19720
ONEWEB-0703             
1 56724U 23068Q   23278.55432594 -.00004160  00000+0 -11089-1 0  9994
2 56724  87.8500  95.5730 0003062  84.9997 275.1482 13.15548602 19666
ONEWEB-0721             
1 56725U 23068R   23278.52258059  .00003960  00000+0  48071-3 0  9992
2 56725  86.6725  82.8324 0013170  97.3250 262.9471 14.83247120 20595
